NORAD_CAT_ID,OBJECT_NAME,OBJECT_TYPE,EPOCH,MEAN_MOTION,ECCENTRICITY,INCLINATION,RA_OF_ASC_NODE,ARG_OF_PERICENTER,MEAN_ANOMALY,BSTAR,MEAN_MOTION_DOT,MEAN_MOTION_DDOT,TLE_LINE0,TLE_LINE1,TLE_LINE2,SEMIMAJOR_AXIS,PERIOD,APOGEE,PERIGEE,DECAYED
56798.0,STARLINK-6068,PAYLOAD,2023-06-13 22:00:00,15.76886376,0.0003309,70.0032,14.9976,271.0977,283.9189,-0.0058773,-0.00861653,0.0,0 STARLINK-6068,1 56798U 23078AH  23164.91667824 -.00861653  00000-0 -58773-2 0  9997,2 56798  70.0032  14.9976 0003309 271.0977 283.9189 15.76886376  1304,6717.406,91.319,341.493,337.048,0.0
56798.0,STARLINK-6068,PAYLOAD,2023-06-14 14:00:01,15.75636948,0.0003512,70.0032,13.1056,267.165,109.6847,-0.0068521,-0.00941574,0.0,0 STARLINK-6068,1 56798U 23078AH  23165.58334491 -.00941574  00000-0 -68521-2 0  9995,2 56798  70.0032  13.1056 0003512 267.1650 109.6847 15.75636948  1306,6720.956,91.392,345.182,340.461,0.0
56798.0,STARLINK-6068,PAYLOAD,2023-06-14 20:00:01,15.7509589,0.0003505,70.0032,12.397,271.6267,82.6351,-0.0064708,-0.00875258,0.0,0 STARLINK-6068,1 56798U 23078AH  23165.83334491 -.00875258  00000-0 -64708-2 0  9991,2 56798  70.0032  12.3970 0003505 271.6267  82.6351 15.75095890  2595,6722.495,91.423,346.717,342.004,0.0
56798.0,STARLINK-6068,PAYLOAD,2023-06-14 22:00:00,15.74935325,0.0003394,70.0033,12.1609,274.8785,191.7437,-0.0064669,-0.00869188,0.0,0 STARLINK-6068,1 56798U 23078AH  23165.91667824 -.00869188  00000-0 -64669-2 0  9990,2 56798  70.0033  12.1609 0003394 274.8785 191.7437 15.74935325  1309,6722.952,91.432,347.099,342.535,0.0
56798.0,STARLINK-6068,PAYLOAD,2023-06-15 12:00:02,15.73815085,0.0003371,70.0029,10.5103,265.7602,266.1022,-0.0069873,-0.00892028,0.0,0 STARLINK-6068,1 56798U 23078AH  23166.50002315 -.00892028  00000-0 -69873-2 0  9995,2 56798  70.0029  10.5103 0003371 265.7602 266.1022 15.73815085  2696,6726.142,91.497,350.274,345.74,0.0
56798.0,STARLINK-6068,PAYLOAD,2023-06-15 14:00:01,15.73681808,0.0003537,70.0032,10.2748,265.1284,18.6344,-0.0074554,-0.00940818,0.0,0 STARLINK-6068,1 56798U 23078AH  23166.58334491 -.00940818  00000-0 -74554-2 0  9999,2 56798  70.0032  10.2748 0003537 265.1284  18.6344 15.73681808  1304,6726.522,91.505,350.766,346.008,0.0
56798.0,STARLINK-6068,PAYLOAD,2023-06-15 20:00:01,15.73141016,0.0003575,70.0027,9.5683,270.954,348.4623,-0.0070844,-0.00879898,0.0,0 STARLINK-6068,1 56798U 23078AH  23166.83334491 -.00879898  00000-0 -70844-2 0  9994,2 56798  70.0027   9.5683 0003575 270.9540 348.4623 15.73141016  1304,6728.063,91.537,352.334,347.523,0.0
56798.0,STARLINK-6068,PAYLOAD,2023-06-16 04:00:00,15.72524369,0.000373,70.0021,8.6269,271.3147,74.9063,-0.0077823,-0.00935141,0.0,0 STARLINK-6068,1 56798U 23078AH  23167.16667824 -.00935141  00000-0 -77823-2 0  9998,2 56798  70.0021   8.6269 0003730 271.3147  74.9063 15.72524369  2809,6729.822,91.573,354.197,349.177,0.0
56798.0,STARLINK-6068,PAYLOAD,2023-06-16 14:00:01,15.71717062,0.0003657,70.0025,7.4517,265.9404,277.699,-0.0080237,-0.00931877,0.0,0 STARLINK-6068,1 56798U 23078AH  23167.58334491 -.00931877  00000-0 -80237-2 0  9990,2 56798  70.0025   7.4517 0003657 265.9404 277.6990 15.71717062  1307,6732.126,91.62,356.453,351.529,0.0
56798.0,STARLINK-6068,PAYLOAD,2023-06-16 20:00:01,15.71181766,0.0003674,70.0022,6.7471,272.2585,245.269,-0.0076397,-0.00873598,0.0,0 STARLINK-6068,1 56798U 23078AH  23167.83334491 -.00873598  00000-0 -76397-2 0  9995,2 56798  70.0022   6.7471 0003674 272.2585 245.2690 15.71181766  2906,6733.655,91.651,357.994,353.046,0.0
56798.0,STARLINK-6068,PAYLOAD,2023-06-16 22:00:00,15.7101415,0.0003697,70.0024,6.5123,271.7786,356.9392,-0.0075461,-0.00858406,0.0,0 STARLINK-6068,1 56798U 23078AH  23167.91667824 -.00858406  00000-0 -75461-2 0  9995,2 56798  70.0024   6.5123 0003697 271.7786 356.9392 15.71014150  1306,6734.134,91.661,358.489,353.51,0.0
56798.0,STARLINK-6068,PAYLOAD,2023-06-17 09:05:20,15.70518109,0.0003993,70.0022,5.212,286.7125,73.3632,-0.002621,-0.00311634,0.0,0 STARLINK-6068,1 56798U 23078AH  23168.37870465 -.00311634  00000-0 -26210-2 0  9998,2 56798  70.0022   5.2120 0003993 286.7125  73.3632 15.70518109  2994,6735.552,91.689,360.107,354.728,0.0
56798.0,STARLINK-6068,PAYLOAD,2023-06-17 12:08:48,15.70322654,0.0003656,70.0022,4.8538,270.3291,89.7486,-0.002318,-0.00274557,0.0,0 STARLINK-6068,1 56798U 23078AH  23168.50612162 -.00274557  00000-0 -23180-2 0  9996,2 56798  70.0022   4.8538 0003656 270.3291  89.7486 15.70322654  3426,6736.111,91.701,360.439,355.513,0.0
56798.0,STARLINK-6068,PAYLOAD,2023-06-17 18:15:47,15.70097145,0.0003591,70.0022,4.1373,270.5973,89.4811,-0.0011373,-0.00135756,0.0,0 STARLINK-6068,1 56798U 23078AH  23168.76097026 -.00135756  00000-0 -11373-2 0  9998,2 56798  70.0022   4.1373 0003591 270.5973  89.4811 15.70097145  3055,6736.756,91.714,361.04,356.202,0.0
56798.0,STARLINK-6068,PAYLOAD,2023-06-17 21:19:16,15.70025205,0.0003595,70.0023,3.7794,269.4577,90.6207,-0.0010576,-0.00126026,0.0,0 STARLINK-6068,1 56798U 23078AH  23168.88838833 -.00126026  00000-0 -10576-2 0  9994,2 56798  70.0023   3.7794 0003595 269.4577  90.6207 15.70025205  3487,6736.962,91.718,361.249,356.405,0.0
56798.0,STARLINK-6068,PAYLOAD,2023-06-18 04:00:00,15.6996103,0.0003632,70.0006,2.9967,268.4048,223.9388,-0.00083199,-0.00099238,0.0,0 STARLINK-6068,1 56798U 23078AH  23169.16667824 -.00099238  00000-0 -83199-3 0  9992,2 56798  70.0006   2.9967 0003632 268.4048 223.9388 15.69961030  3119,6737.145,91.722,361.457,356.564,0.0
56798.0,STARLINK-6068,PAYLOAD,2023-06-18 12:00:00,15.69920953,0.0003692,70.0008,2.0595,262.281,313.3964,0.00012529,0.00014878,0.0,0 STARLINK-6068,1 56798U 23078AH  23169.50001157  .00014878  00000-0  12529-3 0  9995,2 56798  70.0008   2.0595 0003692 262.2810 313.3964 15.69920953  3162,6737.26,91.724,361.613,356.638,0.0
56798.0,STARLINK-6068,PAYLOAD,2023-06-18 12:36:49,15.69927545,0.000348,70.0018,1.9883,260.2845,99.7958,4.2302e-05,4.877e-05,0.0,0 STARLINK-6068,1 56798U 23078AH  23169.52556734  .00004877  00000-0  42302-4 0  9994,2 56798  70.0018   1.9883 0003480 260.2845  99.7958 15.69927545  3580,6737.241,91.724,361.451,356.762,0.0
56798.0,STARLINK-6068,PAYLOAD,2023-06-18 22:00:00,15.69890956,0.0003604,70.0007,0.8876,271.4059,138.4588,0.00059703,0.00072098,0.0,0 STARLINK-6068,1 56798U 23078AH  23169.91667824  .00072098  00000-0  59703-3 0  9992,2 56798  70.0007   0.8876 0003604 271.4059 138.4588 15.69890956  1300,6737.346,91.726,361.639,356.783,0.0
56798.0,STARLINK-6068,PAYLOAD,2023-06-19 04:00:00,15.69964714,0.0003573,70.0003,0.1848,269.8337,112.5146,-0.00071953,-0.00085999,0.0,0 STARLINK-6068,1 56798U 23078AH  23170.16667824 -.00085999  00000-0 -71953-3 0  9998,2 56798  70.0003   0.1848 0003573 269.8337 112.5146 15.69964714  3278,6737.135,91.722,361.407,356.593,0.0
56798.0,STARLINK-6068,PAYLOAD,2023-06-19 08:29:35,15.69953363,0.0003584,70.0013,359.6589,269.849,90.2295,0.00061708,0.00074743,0.0,0 STARLINK-6068,1 56798U 23078AH  23170.35388420  .00074743  00000-0  61708-3 0  9991,2 56798  70.0013 359.6589 0003584 269.8490  90.2295 15.69953363  3304,6737.167,91.722,361.447,356.618,0.0
56798.0,STARLINK-6068,PAYLOAD,2023-06-19 13:04:51,15.69923359,0.0003344,70.0011,359.1211,265.3913,94.6901,0.0002268,0.00027145,0.0,0 STARLINK-6068,1 56798U 23078AH  23170.54503545  .00027145  00000-0  22680-3 0  9999,2 56798  70.0011 359.1211 0003344 265.3913  94.6901 15.69923359  3746,6737.253,91.724,361.371,356.865,0.0
56798.0,STARLINK-6068,PAYLOAD,2023-06-19 20:00:01,15.69882679,0.00037,70.0006,358.3105,273.1754,275.8708,0.00050649,0.00061031,0.0,0 STARLINK-6068,1 56798U 23078AH  23170.83334491  .00061031  00000-0  50649-3 0  9991,2 56798  70.0006 358.3105 0003700 273.1754 275.8708 15.69882679  3375,6737.37,91.727,361.727,356.742,0.0
56798.0,STARLINK-6068,PAYLOAD,2023-06-19 22:00:00,15.69885498,0.0003697,70.0006,358.0762,274.3156,25.5573,0.00061605,0.00074407,0.0,0 STARLINK-6068,1 56798U 23078AH  23170.91667824  .00074407  00000-0  61605-3 0  9994,2 56798  70.0006 358.0762 0003697 274.3156  25.5573 15.69885498  1308,6737.362,91.726,361.717,356.736,0.0
56798.0,STARLINK-6068,PAYLOAD,2023-06-20 04:00:00,15.69948869,0.000365,70.0002,357.3731,271.4457,0.9106,-0.00061171,-0.00073208,0.0,0 STARLINK-6068,1 56798U 23078AH  23171.16667824 -.00073208  00000-0 -61171-3 0  9990,2 56798  70.0002 357.3731 0003650 271.4457   0.9106 15.69948869  3430,6737.18,91.723,361.504,356.586,0.0
56798.0,STARLINK-6068,PAYLOAD,2023-06-20 12:00:00,15.69937291,0.0003678,70.0005,356.436,267.3488,88.3457,-9.3667e-05,-0.00011467,0.0,0 STARLINK-6068,1 56798U 23078AH  23171.50001157 -.00011467  00000-0 -93667-4 0  9994,2 56798  70.0005 356.4360 0003678 267.3488  88.3457 15.69937291  3480,6737.213,91.723,361.556,356.6,0.0
56798.0,STARLINK-6068,PAYLOAD,2023-06-20 14:00:01,15.69959208,0.0003673,70.0006,356.2015,268.3741,198.1515,-0.00052435,-0.00062888,0.0,0 STARLINK-6068,1 56798U 23078AH  23171.58334491 -.00062888  00000-0 -52435-3 0  9992,2 56798  70.0006 356.2015 0003673 268.3741 198.1515 15.69959208  1300,6737.151,91.722,361.49,356.541,0.0
56798.0,STARLINK-6068,PAYLOAD,2023-06-20 22:00:00,15.69895244,0.0003582,70.0006,355.2642,274.291,275.5923,0.00044092,0.00053079,0.0,0 STARLINK-6068,1 56798U 23078AH  23171.91667824  .00053079  00000-0  44092-3 0  9998,2 56798  70.0006 355.2642 0003582 274.2910 275.5923 15.69895244  1300,6737.334,91.726,361.612,356.785,0.0
56798.0,STARLINK-6068,PAYLOAD,2023-06-21 01:46:54,15.6993539,0.0003599,70.0008,354.8211,272.3932,87.6851,0.00042581,0.00051327,0.0,0 STARLINK-6068,1 56798U 23078AH  23172.07423677  .00051327  00000-0  42581-3 0  9997,2 56798  70.0008 354.8211 0003599 272.3932  87.6851 15.69935390  3570,6737.219,91.724,361.509,356.659,0.0
56798.0,STARLINK-6068,PAYLOAD,2023-06-21 12:29:10,15.6992755,0.0003694,70.0007,353.5676,270.7962,89.281,0.0001128,0.00013375,0.0,0 STARLINK-6068,1 56798U 23078AH  23172.52025531  .00013375  00000-0  11280-3 0  9997,2 56798  70.0007 353.5676 0003694 270.7962  89.2810 15.69927550  3641,6737.241,91.724,361.595,356.618,0.0
